[{"OBJECT_NAME":"LEMUR-2-DEMBITZ","OBJECT_ID":"2017-042T","EPOCH":"2026-03-09T11:23:53.232288","MEAN_MOTION":15.26947128,"ECCENTRICITY":0.00069617,"INCLINATION":97.3807,"RA_OF_ASC_NODE":250.9241,"ARG_OF_PERICENTER":17.1421,"MEAN_ANOMALY":343.0051,"EPHEMERIS_TYPE":0,"CLASSIFICATION_TYPE":"U","NORAD_CAT_ID":42842,"ELEMENT_SET_NO":999,"REV_AT_EPOCH":47311,"BSTAR":0.00076560825,"MEAN_MOTION_DOT":0.00020231,"MEAN_MOTION_DDOT":0},{"OBJECT_NAME":"STARLINK-30281","OBJECT_ID":"2023-129U","EPOCH":"2026-03-09T22:00:01.999584","MEAN_MOTION":15.26734456,"ECCENTRICITY":0.00011071,"INCLINATION":43.0001,"RA_OF_ASC_NODE":116.902,"ARG_OF_PERICENTER":261.9305,"MEAN_ANOMALY":108.6731,"EPHEMERIS_TYPE":0,"CLASSIFICATION_TYPE":"U","NORAD_CAT_ID":57716,"ELEMENT_SET_NO":999,"REV_AT_EPOCH":557,"BSTAR":0.00019526642,"MEAN_MOTION_DOT":4.981e-5,"MEAN_MOTION_DDOT":0}]
